H1 CPF 01  gfz 2021 10 09 12  7822 terrasarx 
H2 0702601  6201 31698    2021 10 09 12 59 42 2021 10 14 00 00 42   120 1 1  0 0 0
H9
10 0 59497  59742.000000  0   -6412802.543  -2518482.846       180.133
10 0 59497  59862.000000  0   -6421364.758  -2330950.834   -902444.962
10 0 59497  59982.000000  0   -6314154.321  -2103573.636  -1789198.844
10 0 59497  60102.000000  0   -6092483.284  -1842364.559  -2644509.172
10 0 59497  60222.000000  0   -5759781.909  -1553883.937  -3453386.073
10 0 59497  60342.000000  0   -5321536.243  -1245083.913  -4201687.566
10 0 59497  60462.000000  0   -4785186.370   -923148.597  -4876366.002
10 0 59497  60582.000000  0   -4159988.269   -595333.007  -5465691.501
10 0 59497  60702.000000  0   -3456842.456   -268805.169  -5959447.901
10 0 59497  60822.000000  0   -2688095.254     49505.382  -6349098.806
10 0 59497  60942.000000  0   -1867317.408    353049.206  -6627923.194
10 0 59497  61062.000000  0   -1009063.163    635785.831  -6791120.286
10 0 59497  61182.000000  0    -128615.200    892299.448  -6835882.827
10 0 59497  61302.000000  0     758280.937   1117899.295  -6761439.080
10 0 59497  61422.000000  0    1635690.743   1308702.348  -6569067.058
10 0 59497  61542.000000  0    2487771.756   1461699.624  -6262075.959
10 0 59497  61662.000000  0    3299054.834   1574803.386  -5845754.933
10 0 59497  61782.000000  0    4054721.329   1646874.376  -5327290.034
10 0 59497  61902.000000  0    4740873.398   1677729.620  -4715652.217
10 0 59497  62022.000000  0    5344794.423   1668130.515  -4021453.396
10 0 59497  62142.000000  0    5855191.696   1619750.367  -3256771.575
10 0 59497  62262.000000  0    6262417.169   1535122.044  -2434948.729
10 0 59497  62382.000000  0    6558662.368   1417567.041  -1570362.396
10 0 59497  62502.000000  0    6738120.055   1271106.750   -678173.526
10 0 59497  62622.000000  0    6797108.124   1100357.253    225943.544
10 0 59497  62742.000000  0    6734150.642    910411.430   1126083.042
10 0 59497  62862.000000  0    6550017.426    706710.803   2006394.738
10 0 59497  62982.000000  0    6247717.649    494909.143   2851373.388
10 0 59497  63102.000000  0    5832446.821    280732.719   3646139.634
10 0 59497  63222.000000  0    5311490.462     69840.261   4376708.623
10 0 59497  63342.000000  0    4694087.112   -132312.106   5030238.161
10 0 59497  63462.000000  0    3991254.952   -320600.549   5595256.112
10 0 59497  63582.000000  0    3215583.916   -490353.025   6061858.415
10 0 59497  63702.000000  0    2381002.247   -637455.161   6421877.400
10 0 59497  63822.000000  0    1502521.056   -758442.362   6669018.943
10 0 59497  63942.000000  0     595960.351   -850575.861   6798967.816
10 0 59497  64062.000000  0    -322338.381   -911901.079   6809457.490
10 0 59497  64182.000000  0   -1235806.267   -941287.666   6700306.003
10 0 59497  64302.000000  0   -2127944.626   -938450.359   6473418.296
10 0 59497  64422.000000  0   -2982621.100   -903949.976   6132754.762
10 0 59497  64542.000000  0   -3784361.353   -839174.879   5684268.106
10 0 59497  64662.000000  0   -4518633.192   -746303.937   5135806.275
10 0 59497  64782.000000  0   -5172116.602   -628251.142   4496981.056
10 0 59497  64902.000000  0   -5732953.351   -488592.452   3779003.744
10 0 59497  65022.000000  0   -6190970.725   -331476.504   2994490.853
10 0 59497  65142.000000  0   -6537875.754   -161520.996   2157244.095
10 0 59497  65262.000000  0   -6767416.163     16303.445   1282005.288
10 0 59497  65382.000000  0   -6875501.103    196798.015    384190.682
10 0 59497  65502.000000  0   -6860278.732    374666.558   -520388.764
10 0 59497  65622.000000  0   -6722168.170    544649.507  -1415815.191
10 0 59497  65742.000000  0   -6463844.915    701656.700  -2286351.912
10 0 59497  65862.000000  0   -6090183.769    840896.023  -3116726.172
10 0 59497  65982.000000  0   -5608156.937    957995.171  -3892403.961
10 0 59497  66102.000000  0   -5026689.999   1049112.671  -4599844.985
10 0 59497  66222.000000  0   -4356483.678   1111035.812  -5226735.667
10 0 59497  66342.000000  0   -3609805.081   1141263.316  -5762196.130
10 0 59497  66462.000000  0   -2800254.489   1138071.065  -6196959.142
10 0 59497  66582.000000  0   -1942512.562   1100559.514  -6523518.988
10 0 59497  66702.000000  0   -1052072.440   1028684.017  -6736249.948
10 0 59497  66822.000000  0    -144962.106    923265.788  -6831491.893
10 0 59497  66942.000000  0     762537.067    785984.324  -6807605.651
10 0 59497  67062.000000  0    1654174.859    619351.218  -6665000.658
10 0 59497  67182.000000  0    2514017.840    426665.313  -6406129.097
10 0 59497  67302.000000  0    3326728.504    211950.527  -6035448.185
10 0 59497  67422.000000  0    4077835.696    -20123.531  -5559350.656
10 0 59497  67542.000000  0    4753990.998   -264337.146  -4986065.046
10 0 59497  67662.000000  0    5343210.531   -515030.067  -4325525.946
10 0 59497  67782.000000  0    5835095.294   -766224.169  -3589211.782
10 0 59497  67902.000000  0    6221024.790  -1011756.476  -2789953.933
10 0 59497  68022.000000  0    6494320.336  -1245420.330  -1941718.870
10 0 59497  68142.000000  0    6650373.487  -1461110.817  -1059365.663
10 0 59497  68262.000000  0    6686734.724  -1652971.026   -158383.577
10 0 59497  68382.000000  0    6603160.580  -1815535.694    745384.797
10 0 59497  68502.000000  0    6401616.380  -1943868.451   1636030.444
10 0 59497  68622.000000  0    6086233.953  -2033689.038   2497866.716
10 0 59497  68742.000000  0    5663225.840  -2081486.879   3315715.012
10 0 59497  68862.000000  0    5140756.893  -2084617.767   4075179.262
10 0 59497  68982.000000  0    4528778.350  -2041381.978   4762902.953
10 0 59497  69102.000000  0    3838830.501  -1951081.172   5366805.146
10 0 59497  69222.000000  0    3083816.275  -1814054.266   5876292.834
10 0 59497  69342.000000  0    2277750.830  -1631690.509   6282442.325
10 0 59497  69462.000000  0    1435495.806  -1406420.414   6578149.581
10 0 59497  69582.000000  0     572481.226  -1141684.692   6758248.804
10 0 59497  69702.000000  0    -295579.314   -841881.009   6819596.902
10 0 59497  69822.000000  0   -1152974.316   -512290.315   6761123.674
10 0 59497  69942.000000  0   -1984277.244   -158984.069   6583849.038
10 0 59497  70062.000000  0   -2774622.705    211287.109   6290866.520
10 0 59497  70182.000000  0   -3509972.286    591221.329   5887293.583
10 0 59497  70302.000000  0   -4177366.607    973107.557   5380188.330
10 0 59497  70422.000000  0   -4765159.052   1348979.931   4778432.133
10 0 59497  70542.000000  0   -5263226.260   1710782.282   4092579.617
10 0 59497  70662.000000  0   -5663150.752   2050538.672   3334676.838
10 0 59497  70782.000000  0   -5958371.330   2360526.511   2518051.529
10 0 59497  70902.000000  0   -6144299.030   2633448.461   1657078.221
10 0 59497  71022.000000  0   -6218395.344   2862599.251    766921.021
10 0 59497  71142.000000  0   -6180208.285   3042022.499   -136741.162
10 0 59497  71262.000000  0   -6031366.275   3166653.463  -1037999.137
10 0 59497  71382.000000  0   -5775530.171   3232443.728  -1921002.421
10 0 59497  71502.000000  0   -5418304.426   3236465.641  -2770247.045
10 0 59497  71622.000000  0   -4967108.580   3176992.560  -3570854.042
10 0 59497  71742.000000  0   -4431014.860   3053553.952  -4308832.716
10 0 59497  71862.000000  0   -3820556.154   2866964.309  -4971323.104
10 0 59497  71982.000000  0   -3147510.270   2619325.571  -5546814.108
10 0 59497  72102.000000  0   -2424666.982   2314004.471  -6025333.778
10 0 59497  72222.000000  0   -1665581.300   1955585.434  -6398612.683
10 0 59497  72342.000000  0    -884317.448   1549799.019  -6660214.613
10 0 59497  72462.000000  0     -95191.269   1103429.235  -6805636.421
10 0 59497  72582.000000  0     687486.483    624200.708  -6832376.610
10 0 59497  72702.000000  0    1449663.122    120647.909  -6739975.568
10 0 59497  72822.000000  0    2177791.714   -398033.869  -6530022.252
10 0 59497  72942.000000  0    2859065.986   -922151.874  -6206129.488
10 0 59497  73062.000000  0    3481642.819  -1441692.270  -5773878.475
10 0 59497  73182.000000  0    4034847.049  -1946506.238  -5240732.462
10 0 59497  73302.000000  0    4509358.203  -2426505.826  -4615919.815
10 0 59497  73422.000000  0    4897373.064  -2871864.465  -3910284.722
10 0 59497  73542.000000  0    5192741.376  -3273217.632  -3136108.815
10 0 59497  73662.000000  0    5391072.842  -3621860.118  -2306904.611
10 0 59497  73782.000000  0    5489810.953  -3909935.164  -1437182.577
10 0 59497  73902.000000  0    5488271.139  -4130610.952   -542197.027
10 0 59497  74022.000000  0    5387642.154  -4278239.825    362325.365
10 0 59497  74142.000000  0    5190949.671  -4348496.133   1260469.138
10 0 59497  74262.000000  0    4902981.217  -4338487.786   2136419.233
10 0 59497  74382.000000  0    4530175.797  -4246837.840   2974748.520
10 0 59497  74502.000000  0    4080481.242  -4073735.126   3760696.582
10 0 59497  74622.000000  0    3563183.083  -3820953.889   4480435.400
10 0 59497  74742.000000  0    2988707.623  -3491840.303   5121316.090
10 0 59497  74862.000000  0    2368406.744  -3091266.567   5672090.481
10 0 59497  74982.000000  0    1714328.865  -2625555.025   6123106.323
10 0 59497  75102.000000  0    1038980.439  -2102373.666   6466470.778
10 0 59497  75222.000000  0     355084.476  -1530606.326   6696182.313
10 0 59497  75342.000000  0    -324660.024   -920199.319   6808229.672
10 0 59497  75462.000000  0    -987813.132   -281986.703   6800657.173
10 0 59497  75582.000000  0   -1622420.531    372501.928   6673596.409
10 0 59497  75702.000000  0   -2217228.223   1031249.201   6429264.123
10 0 59497  75822.000000  0   -2761882.061   1681969.649   6071926.051
10 0 59497  75942.000000  0   -3247109.057   2312338.054   5607827.369
10 0 59497  76062.000000  0   -3664878.455   2910223.701   5045090.364
10 0 59497  76182.000000  0   -4008539.225   3463925.977   4393577.947
99
